CZ-4B R/B               
1 28059U 03049C   18040.21933571 -.00000012  00000-0  89761-5 0  9994
2 28059  98.5353 295.4963 0049069 243.5867 227.9622 14.52516857758082
CZ-2C R/B               
1 28222U 04012C   18039.97150106  .00000639  00000-0  42717-4 0  9996
2 28222  97.5587 357.5060 0049611  93.8123 307.2313 15.09586495756337
SL-16 R/B               
1 28353U 04021B   18039.88976363  .00000092  00000-0  73261-4 0  9993
2 28353  71.0023 302.0552 0006237 220.5511 139.5147 14.14210280705620
CZ-2C R/B               
1 28480U 04046B   18039.84062012 -.00000021  00000-0  80716-5 0  9991
2 28480  98.1863 125.7302 0140933 245.9250 221.4641 14.25665164687951
ARIANE 5 R/B            
1 28499U 04049H   18040.24570711  .00000033  00000-0  11383-4 0  9995
2 28499  98.0640 129.4697 0092697 169.2439 249.4311 14.79879417709058
CZ-2D R/B               
1 28738U 05024B   18040.49804931  .00000452  00000-0  30498-4 0  9999
2 28738  97.4702  77.3674 0010553 267.3666  92.6356 15.11438761691658
SUZAKU (ASTRO-EII)      
1 28773U 05025A   18039.88065577  .00000894  00000-0  40557-4 0  9992
2 28773  31.3816 200.8699 0004655 207.2560 152.7843 15.16348301693322
ALOS (DAICHI)           
1 28931U 06002A   18040.49232878  .00000097  00000-0  27715-4 0  9999
2 28931  97.8266  60.7393 0001016  52.5829 307.5473 14.62455669642144
H-2A R/B                
1 28932U 06002B   18040.45278834  .00000465  00000-0  49544-4 0  9991
2 28932  98.2219 338.0774 0088234 253.8406 221.0666 14.91626757653175
AKARI (ASTRO-F)         
1 28939U 06005A   18040.53740134  .00001895  00000-0  58003-4 0  9995
2 28939  98.2268 272.2784 0104483  82.2966 279.0122 15.30181425649397
RESURS-DK 1             
1 29228U 06021A   18040.55670943  .00000102  00000-0  15100-4 0  9998
2 29228  69.9339 214.1006 0006510 311.1313  48.9285 15.02281185643746
GENESIS 1               
1 29252U 06029A   18040.47861610  .00000128  00000-0  16804-4 0  9997
2 29252  64.5035 230.2836 0037265 303.0581  56.6965 15.17177649637823
CZ-4B R/B               
1 29507U 06046C   18040.52758085  .00000095  00000-0  12376-4 0  9999
2 29507  97.7917  53.2475 0052618 168.1702 192.0771 15.00269523616629
CZ-2C R/B               
1 31114U 07010B   18039.72437552 -.00000038  00000-0  16060-5 0  9994
2 31114  98.3786 294.6675 0058652 248.4631 111.0288 14.19263853561056
COSMO-SKYMED 1          
1 31598U 07023A   18039.79804437 -.00000391  00000-0 -42619-4 0  9992
2 31598  97.8889 225.1338 0001375  87.9498 272.1904 14.82147121577490
GENESIS 2               
1 31789U 07028A   18039.91321405  .00000340  00000-0  27659-4 0  9991
2 31789  64.5039 270.9384 0006321 259.7401 100.3008 15.16428801584803
COSMOS 2428             
1 31792U 07029A   18040.46609385  .00000330  00000-0  20454-3 0  9998
2 31792  70.9467 274.2406 0011298 275.2617  84.7214 14.12445203547573
SL-16 R/B               
1 31793U 07029B   18039.94262554 -.00000078  00000-0 -15840-4 0  9998
2 31793  70.9726 251.8500 0001999 254.2922 203.3111 14.14390100548158
KORONAS-FOTON           
1 33504U 09003A   18039.95870784  .00000834  00000-0  42697-4 0  9993
2 33504  82.4440 357.6524 0019855  16.5125 343.6749 15.15078403497223
TIANGONG 1              
1 37820U 11053A   18040.40973567  .00084450  11468-4  13265-3 0  9999
2 37820  42.7507 166.1135 0018528 347.8108  76.8423 16.03138793365707
H-2A R/B                
1 38341U 12025E   18040.23126179  .00000154  00000-0  25600-4 0  9990
2 38341  98.4197 135.3259 0056976 115.3766 245.3360 14.83707896310021
CUSAT 2 & FALCON 9 R/B  
1 39271U 13055G   18039.77393020  .00006164  00000-0  15690-3 0  9999
2 39271  80.9676 106.2753 0620896 220.6568 134.6678 14.40071898226641
ALOS-2                  
1 39766U 14029A   18040.10050630  .00000096  00000-0  19715-4 0  9997
2 39766  97.9192 139.0310 0001647  85.3700 274.7713 14.79472671200638
SL-27 R/B               
1 40354U 14084B   18039.92280186  .00000934  00000-0  25034-4 0  9994
2 40354  74.7395   4.4836 0040780 267.4183  92.2360 15.38818875175861
ASTRO-H (HITOMI)        
1 41337U 16012A   18040.21407816  .00000240  00000-0  12626-4 0  9997
2 41337  31.0066  56.6843 0012478 221.8299 138.1383 14.98426265108501
TIANGONG-2              
1 41765U 16057A   18040.46107178  .00003749  00000-0  49095-4 0  9993
2 41765  42.7850  24.1749 0002112  78.5425  61.0112 15.60315361 80027
SHENZHOU-11 MODULE      
1 41868U 16061G   18039.79807956  .00007002  00000-0  60102-4 0  9995
2 41868  42.7963   8.8679 0003058 301.4473 131.7548 15.69952108 70086
HUMANITY STAR           
1 43168U 18010F   18040.51699228  .00264722  17709-4  18085-2 0  9992
2 43168  82.9133 120.1625 0145160 151.1973 209.7411 15.61553606  3028
